CCSDS_OMM_VERS = 2.0
CREATION_DATE  = 
ORIGINATOR     = 

OBJECT_NAME    = HULIANWANG DIGUI-142
OBJECT_ID      = 2026-007F
CENTER_NAME    = EARTH
REF_FRAME      = TEME
TIME_SYSTEM    = UTC
MEAN_ELEMENT_THEORY = SGP/SGP4

EPOCH          = 2026-01-23T21:10:17.219136
MEAN_MOTION    = 13.90535672
ECCENTRICITY   = .00025235
INCLINATION    = 50.0048
RA_OF_ASC_NODE = 253.5982
ARG_OF_PERICENTER = 314.3162
MEAN_ANOMALY   = 45.7530

EPHEMERIS_TYPE = 0
CLASSIFICATION_TYPE = U
NORAD_CAT_ID   = 67440
ELEMENT_SET_NO = 999
REV_AT_EPOCH   = 143
BSTAR          = .25024309E-4
MEAN_MOTION_DOT = -.115E-5
MEAN_MOTION_DDOT = 0

CCSDS_OMM_VERS = 2.0
CREATION_DATE  = 
ORIGINATOR     = 

OBJECT_NAME    = HULIANWANG DIGUI-143
OBJECT_ID      = 2026-007G
CENTER_NAME    = EARTH
REF_FRAME      = TEME
TIME_SYSTEM    = UTC
MEAN_ELEMENT_THEORY = SGP/SGP4

EPOCH          = 2026-01-23T19:25:36.591456
MEAN_MOTION    = 13.91012328
ECCENTRICITY   = .00074295
INCLINATION    = 50.0266
RA_OF_ASC_NODE = 253.8698
ARG_OF_PERICENTER = 282.2294
MEAN_ANOMALY   = 77.7773

EPHEMERIS_TYPE = 0
CLASSIFICATION_TYPE = U
NORAD_CAT_ID   = 67441
ELEMENT_SET_NO = 999
REV_AT_EPOCH   = 142
BSTAR          = .23175548E-3
MEAN_MOTION_DOT = .146E-5
MEAN_MOTION_DDOT = 0

CCSDS_OMM_VERS = 2.0
CREATION_DATE  = 
ORIGINATOR     = 

OBJECT_NAME    = HULIANWANG DIGUI-144
OBJECT_ID      = 2026-007H
CENTER_NAME    = EARTH
REF_FRAME      = TEME
TIME_SYSTEM    = UTC
MEAN_ELEMENT_THEORY = SGP/SGP4

EPOCH          = 2026-01-23T21:07:43.576608
MEAN_MOTION    = 13.91086201
ECCENTRICITY   = .00027371
INCLINATION    = 50.0013
RA_OF_ASC_NODE = 253.5868
ARG_OF_PERICENTER = 328.4135
MEAN_ANOMALY   = 31.6599

EPHEMERIS_TYPE = 0
CLASSIFICATION_TYPE = U
NORAD_CAT_ID   = 67442
ELEMENT_SET_NO = 999
REV_AT_EPOCH   = 143
BSTAR          = .21238426E-3
MEAN_MOTION_DOT = .122E-5
MEAN_MOTION_DDOT = 0

CCSDS_OMM_VERS = 2.0
CREATION_DATE  = 
ORIGINATOR     = 

OBJECT_NAME    = HULIANWANG DIGUI-145
OBJECT_ID      = 2026-007J
CENTER_NAME    = EARTH
REF_FRAME      = TEME
TIME_SYSTEM    = UTC
MEAN_ELEMENT_THEORY = SGP/SGP4

EPOCH          = 2026-01-23T21:05:36.167712
MEAN_MOTION    = 13.91383132
ECCENTRICITY   = .00014913
INCLINATION    = 50.0029
RA_OF_ASC_NODE = 253.5784
ARG_OF_PERICENTER = 329.9765
MEAN_ANOMALY   = 30.1048

EPHEMERIS_TYPE = 0
CLASSIFICATION_TYPE = U
NORAD_CAT_ID   = 67443
ELEMENT_SET_NO = 999
REV_AT_EPOCH   = 143
BSTAR          = .2412606E-3
MEAN_MOTION_DOT = .16E-5
MEAN_MOTION_DDOT = 0

CCSDS_OMM_VERS = 2.0
CREATION_DATE  = 
ORIGINATOR     = 

OBJECT_NAME    = CZ-8A R/B
OBJECT_ID      = 2026-007K
CENTER_NAME    = EARTH
REF_FRAME      = TEME
TIME_SYSTEM    = UTC
MEAN_ELEMENT_THEORY = SGP/SGP4

EPOCH          = 2026-01-23T22:32:32.512416
MEAN_MOTION    = 14.13547373
ECCENTRICITY   = .00921865
INCLINATION    = 50.0090
RA_OF_ASC_NODE = 251.8847
ARG_OF_PERICENTER = 118.3989
MEAN_ANOMALY   = 242.6250

EPHEMERIS_TYPE = 0
CLASSIFICATION_TYPE = U
NORAD_CAT_ID   = 67444
ELEMENT_SET_NO = 999
REV_AT_EPOCH   = 145
BSTAR          = .1703664E-3
MEAN_MOTION_DOT = .18E-5
MEAN_MOTION_DDOT = 0

CCSDS_OMM_VERS = 2.0
CREATION_DATE  = 
ORIGINATOR     = 

OBJECT_NAME    = STARLINK-36542
OBJECT_ID      = 2026-008A
CENTER_NAME    = EARTH
REF_FRAME      = TEME
TIME_SYSTEM    = UTC
MEAN_ELEMENT_THEORY = SGP/SGP4

EPOCH          = 2026-01-23T22:00:03.999744
MEAN_MOTION    = 15.94447496
ECCENTRICITY   = .00013761
INCLINATION    = 43.0018
RA_OF_ASC_NODE = 105.8956
ARG_OF_PERICENTER = 281.1284
MEAN_ANOMALY   = 155.4482

EPHEMERIS_TYPE = 0
CLASSIFICATION_TYPE = U
NORAD_CAT_ID   = 67445
ELEMENT_SET_NO = 999
REV_AT_EPOCH   = 259
BSTAR          = -.27864761E-2
MEAN_MOTION_DOT = -.1091047E-1
MEAN_MOTION_DDOT = .36296402E-3

CCSDS_OMM_VERS = 2.0
CREATION_DATE  = 
ORIGINATOR     = 

OBJECT_NAME    = STARLINK-36539
OBJECT_ID      = 2026-008B
CENTER_NAME    = EARTH
REF_FRAME      = TEME
TIME_SYSTEM    = UTC
MEAN_ELEMENT_THEORY = SGP/SGP4

EPOCH          = 2026-01-23T22:00:03.999744
MEAN_MOTION    = 15.94525227
ECCENTRICITY   = .00017599
INCLINATION    = 43.0017
RA_OF_ASC_NODE = 105.8898
ARG_OF_PERICENTER = 278.4333
MEAN_ANOMALY   = 160.4322

EPHEMERIS_TYPE = 0
CLASSIFICATION_TYPE = U
NORAD_CAT_ID   = 67446
ELEMENT_SET_NO = 999
REV_AT_EPOCH   = 259
BSTAR          = -.28194686E-2
MEAN_MOTION_DOT = -.1108472E-1
MEAN_MOTION_DDOT = .37391088E-3

CCSDS_OMM_VERS = 2.0
CREATION_DATE  = 
ORIGINATOR     = 

OBJECT_NAME    = STARLINK-36440
OBJECT_ID      = 2026-008C
CENTER_NAME    = EARTH
REF_FRAME      = TEME
TIME_SYSTEM    = UTC
MEAN_ELEMENT_THEORY = SGP/SGP4

EPOCH          = 2026-01-23T22:00:03.999744
MEAN_MOTION    = 15.94604123
ECCENTRICITY   = .00013197
INCLINATION    = 43.0018
RA_OF_ASC_NODE = 105.8839
ARG_OF_PERICENTER = 281.5450
MEAN_ANOMALY   = 159.7999

EPHEMERIS_TYPE = 0
CLASSIFICATION_TYPE = U
NORAD_CAT_ID   = 67447
ELEMENT_SET_NO = 999
REV_AT_EPOCH   = 259
BSTAR          = -.28194988E-2
MEAN_MOTION_DOT = -.1113064E-1
MEAN_MOTION_DDOT = .37704274E-3

CCSDS_OMM_VERS = 2.0
CREATION_DATE  = 
ORIGINATOR     = 

OBJECT_NAME    = STARLINK-36423
OBJECT_ID      = 2026-008D
CENTER_NAME    = EARTH
REF_FRAME      = TEME
TIME_SYSTEM    = UTC
MEAN_ELEMENT_THEORY = SGP/SGP4

EPOCH          = 2026-01-23T22:00:03.999744
MEAN_MOTION    = 15.94674473
ECCENTRICITY   = .00013563
INCLINATION    = 43.0019
RA_OF_ASC_NODE = 105.8779
ARG_OF_PERICENTER = 283.4282
MEAN_ANOMALY   = 160.1383

EPHEMERIS_TYPE = 0
CLASSIFICATION_TYPE = U
NORAD_CAT_ID   = 67448
ELEMENT_SET_NO = 999
REV_AT_EPOCH   = 259
BSTAR          = -.28211715E-2
MEAN_MOTION_DOT = -.1117898E-1
MEAN_MOTION_DDOT = .38030668E-3

CCSDS_OMM_VERS = 2.0
CREATION_DATE  = 
ORIGINATOR     = 

OBJECT_NAME    = STARLINK-36519
OBJECT_ID      = 2026-008E
CENTER_NAME    = EARTH
REF_FRAME      = TEME
TIME_SYSTEM    = UTC
MEAN_ELEMENT_THEORY = SGP/SGP4

EPOCH          = 2026-01-23T22:00:03.999744
MEAN_MOTION    = 15.94753647
ECCENTRICITY   = .00013868
INCLINATION    = 43.0018
RA_OF_ASC_NODE = 105.8718
ARG_OF_PERICENTER = 282.3663
MEAN_ANOMALY   = 163.6152

EPHEMERIS_TYPE = 0
CLASSIFICATION_TYPE = U
NORAD_CAT_ID   = 67449
ELEMENT_SET_NO = 999
REV_AT_EPOCH   = 259
BSTAR          = -.28290124E-2
MEAN_MOTION_DOT = -.1125714E-1
MEAN_MOTION_DDOT = .38548308E-3

CCSDS_OMM_VERS = 2.0
CREATION_DATE  = 
ORIGINATOR     = 

OBJECT_NAME    = STARLINK-36525
OBJECT_ID      = 2026-008F
CENTER_NAME    = EARTH
REF_FRAME      = TEME
TIME_SYSTEM    = UTC
MEAN_ELEMENT_THEORY = SGP/SGP4

EPOCH          = 2026-01-23T22:00:03.999744
MEAN_MOTION    = 15.94847670
ECCENTRICITY   = .00014268
INCLINATION    = 43.0016
RA_OF_ASC_NODE = 105.8647
ARG_OF_PERICENTER = 281.7242
MEAN_ANOMALY   = 167.0834

EPHEMERIS_TYPE = 0
CLASSIFICATION_TYPE = U
NORAD_CAT_ID   = 67450
ELEMENT_SET_NO = 999
REV_AT_EPOCH   = 259
BSTAR          = -.28487342E-2
MEAN_MOTION_DOT = -.1139182E-1
MEAN_MOTION_DDOT = .39432146E-3

CCSDS_OMM_VERS = 2.0
CREATION_DATE  = 
ORIGINATOR     = 

OBJECT_NAME    = STARLINK-36511
OBJECT_ID      = 2026-008G
CENTER_NAME    = EARTH
REF_FRAME      = TEME
TIME_SYSTEM    = UTC
MEAN_ELEMENT_THEORY = SGP/SGP4

EPOCH          = 2026-01-23T22:00:03.999744
MEAN_MOTION    = 15.94943009
ECCENTRICITY   = .00013985
INCLINATION    = 43.0017
RA_OF_ASC_NODE = 105.8576
ARG_OF_PERICENTER = 282.6360
MEAN_ANOMALY   = 169.0953

EPHEMERIS_TYPE = 0
CLASSIFICATION_TYPE = U
NORAD_CAT_ID   = 67451
ELEMENT_SET_NO = 999
REV_AT_EPOCH   = 259
BSTAR          = -.28519576E-2
MEAN_MOTION_DOT = -.1146267E-1
MEAN_MOTION_DDOT = .39919543E-3

