HULIANWANG DIGUI-142    
1 67440U 26007F   26023.88214374 -.00000115  00000+0  25024-4 0  9990
2 67440  50.0048 253.5982 0002523 314.3162  45.7530 13.90535672  1439
HULIANWANG DIGUI-143    
1 67441U 26007G   26023.80945129  .00000146  00000+0  23176-3 0  9990
2 67441  50.0266 253.8698 0007429 282.2294  77.7773 13.91012328  1420
HULIANWANG DIGUI-144    
1 67442U 26007H   26023.88036547  .00000122  00000+0  21238-3 0  9995
2 67442  50.0013 253.5868 0002737 328.4135  31.6599 13.91086201  1438
HULIANWANG DIGUI-145    
1 67443U 26007J   26023.87889083  .00000160  00000+0  24126-3 0  9997
2 67443  50.0029 253.5784 0001491 329.9765  30.1048 13.91383132  1430
CZ-8A R/B               
1 67444U 26007K   26023.93926519  .00000180  00000+0  17037-3 0  9996
2 67444  50.0090 251.8847 0092186 118.3989 242.6250 14.13547373  1450
STARLINK-36542          
1 67445U 26008A   26023.91671296 -.01091047  36296-3 -27865-2 0  9999
2 67445  43.0018 105.8956 0001376 281.1284 155.4482 15.94447496  2599
STARLINK-36539          
1 67446U 26008B   26023.91671296 -.01108472  37391-3 -28195-2 0  9995
2 67446  43.0017 105.8898 0001759 278.4333 160.4322 15.94525227  2591
STARLINK-36440          
1 67447U 26008C   26023.91671296 -.01113064  37704-3 -28195-2 0  9997
2 67447  43.0018 105.8839 0001319 281.5450 159.7999 15.94604123  2599
STARLINK-36423          
1 67448U 26008D   26023.91671296 -.01117898  38031-3 -28212-2 0  9991
2 67448  43.0019 105.8779 0001356 283.4282 160.1383 15.94674473  2597
STARLINK-36519          
1 67449U 26008E   26023.91671296 -.01125714  38548-3 -28290-2 0  9997
2 67449  43.0018 105.8718 0001386 282.3663 163.6152 15.94753647  2597
STARLINK-36525          
1 67450U 26008F   26023.91671296 -.01139182  39432-3 -28487-2 0  9994
2 67450  43.0016 105.8647 0001426 281.7242 167.0834 15.94847670  2594
STARLINK-36511          
1 67451U 26008G   26023.91671296 -.01146267  39920-3 -28520-2 0  9997
2 67451  43.0017 105.8576 0001398 282.6360 169.0953 15.94943009  2593
